IRIDIUM 166             
1 43570U 18061B   25021.61271121  .00000367  00000+0  12405-3 0  9996
2 43570  86.3949 270.4980 0002287  93.1101 267.0356 14.34219719340078
IRIDIUM 158             
1 43571U 18061C   25021.23215710  .00000154  00000+0  47959-4 0  9994
2 43571  86.3949 270.6669 0001879  92.9722 267.1688 14.34217118339985
IRIDIUM 165             
1 43572U 18061D   25021.60637101 -.00000140  00000+0 -56912-4 0  9994
2 43572  86.3953 270.5468 0002017  82.5478 277.5947 14.34217326340060
IRIDIUM 155             
1 43573U 18061E   25021.21946546  .00000624  00000+0  21565-3 0  9998
2 43573  86.3945 270.6033 0002085  92.9143 267.2292 14.34216373339978
IRIDIUM 154             
1 43574U 18061F   25021.20044564 -.00000090  00000+0 -39142-4 0  9997
2 43574  86.3952 270.7190 0001976  83.8160 276.3261 14.34216790340026
IRIDIUM 163             
1 43575U 18061G   25021.60002830  .00000004  00000+0 -56650-5 0  9990
2 43575  86.3951 270.4836 0001806  84.9130 275.2272 14.34217404340057
IRIDIUM 156             
1 43576U 18061H   25021.22581363  .00000308  00000+0  10276-3 0  9990
2 43576  86.3950 270.6468 0002136  95.2873 264.8566 14.34216906339993
IRIDIUM 164             
1 43577U 18061J   25021.62539665  .00000593  00000+0  20476-3 0  9992
2 43577  86.3950 270.5120 0002205  79.6708 280.4736 14.34217600340096
